{
  "type": "FeatureCollection",
  "features": [
    {
      "type": "Feature",
      "properties": {
        "norad_id": 30858,
        "name": "FENGYUN 1C DEB",
        "group": "fengyun-1c-debris",
        "lat": 28.21890306563658,
        "lon": -139.93519244624605,
        "alt_km": 810.2963971313848,
        "timestamp": "2025-12-03T13:52:09.840854+00:00",
        "meta_object_name": "FENGYUN 1C DEB",
        "meta_object_id": "1999-025AWU",
        "meta_epoch": "2025-12-03T03:07:59.810304",
        "meta_mean_motion": 14.17755776,
        "meta_eccentricity": 0.00307932,
        "meta_inclination": 98.8004,
        "meta_ra_of_asc_node": 34.8532,
        "meta_arg_of_pericenter": 136.4874,
        "meta_mean_anomaly": 252.8306,
        "meta_ephemeris_type": 0,
        "meta_classification_type": "U",
        "meta_norad_cat_id": 30858,
        "meta_element_set_no": 999,
        "meta_rev_at_epoch": 96844,
        "meta_bstar": 0.00050705789,
        "meta_mean_motion_dot": 9.95e-06,
        "meta_mean_motion_ddot": 0,
        "tle_line1": "1 30858U 99025AWU 25337.13055336  .00000995  00000+0  50706-3 0  9998",
        "tle_line2": "2 30858  98.8004  34.8532 0030793 136.4874 252.8306 14.17755776968442"
      },
      "geometry": {
        "type": "Point",
        "coordinates": [
          -139.93519244624605,
          28.21890306563658
        ]
      }
    },
    {
      "type": "Feature",
      "properties": {
        "norad_id": 30859,
        "name": "FENGYUN 1C DEB",
        "group": "fengyun-1c-debris",
        "lat": -74.56318761395993,
        "lon": 61.85777211459633,
        "alt_km": 753.4209104969068,
        "timestamp": "2025-12-03T13:52:09.840864+00:00",
        "meta_object_name": "FENGYUN 1C DEB",
        "meta_object_id": "1999-025AWV",
        "meta_epoch": "2025-12-03T05:56:18.500640",
        "meta_mean_motion": 14.48737116,
        "meta_eccentricity": 0.00317522,
        "meta_inclination": 98.9225,
        "meta_ra_of_asc_node": 26.8336,
        "meta_arg_of_pericenter": 60.3386,
        "meta_mean_anomaly": 300.0961,
        "meta_ephemeris_type": 0,
        "meta_classification_type": "U",
        "meta_norad_cat_id": 30859,
        "meta_element_set_no": 999,
        "meta_rev_at_epoch": 96897,
        "meta_bstar": 0.0034974159,
        "meta_mean_motion_dot": 0.00013249,
        "meta_mean_motion_ddot": 0,
        "tle_line1": "1 30859U 99025AWV 25337.24743635  .00013249  00000+0  34974-2 0  9991",
        "tle_line2": "2 30859  98.9225  26.8336 0031752  60.3386 300.0961 14.48737116968974"
      },
      "geometry": {
        "type": "Point",
        "coordinates": [
          61.85777211459633,
          -74.56318761395993
        ]
      }
    },
    {
      "type": "Feature",
      "properties": {
        "norad_id": 30860,
        "name": "FENGYUN 1C DEB",
        "group": "fengyun-1c-debris",
        "lat": -10.68675880012299,
        "lon": -130.79780895987057,
        "alt_km": 784.8175552807488,
        "timestamp": "2025-12-03T13:52:09.840874+00:00",
        "meta_object_name": "FENGYUN 1C DEB",
        "meta_object_id": "1999-025AWW",
        "meta_epoch": "2025-12-03T04:33:06.986880",
        "meta_mean_motion": 14.25373513,
        "meta_eccentricity": 0.00399352,
        "meta_inclination": 98.9065,
        "meta_ra_of_asc_node": 50.5039,
        "meta_arg_of_pericenter": 213.9432,
        "meta_mean_anomaly": 145.919,
        "meta_ephemeris_type": 0,
        "meta_classification_type": "U",
        "meta_norad_cat_id": 30860,
        "meta_element_set_no": 999,
        "meta_rev_at_epoch": 96380,
        "meta_bstar": 0.0022828243,
        "meta_mean_motion_dot": 5.384e-05,
        "meta_mean_motion_ddot": 0,
        "tle_line1": "1 30860U 99025AWW 25337.18966420  .00005384  00000+0  22828-2 0  9991",
        "tle_line2": "2 30860  98.9065  50.5039 0039935 213.9432 145.9190 14.25373513963800"
      },
      "geometry": {
        "type": "Point",
        "coordinates": [
          -130.79780895987057,
          -10.68675880012299
        ]
      }
    },
    {
      "type": "Feature",
      "properties": {
        "norad_id": 30862,
        "name": "FENGYUN 1C DEB",
        "group": "fengyun-1c-debris",
        "lat": 43.51425574208316,
        "lon": -103.50944817595094,
        "alt_km": 722.7091669882111,
        "timestamp": "2025-12-03T13:52:09.840885+00:00",
        "meta_object_name": "FENGYUN 1C DEB",
        "meta_object_id": "1999-025AWY",
        "meta_epoch": "2025-12-03T05:03:23.950368",
        "meta_mean_motion": 14.42697915,
        "meta_eccentricity": 0.00538995,
        "meta_inclination": 98.9598,
        "meta_ra_of_asc_node": 67.4901,
        "meta_arg_of_pericenter": 189.9681,
        "meta_mean_anomaly": 200.2162,
        "meta_ephemeris_type": 0,
        "meta_classification_type": "U",
        "meta_norad_cat_id": 30862,
        "meta_element_set_no": 999,
        "meta_rev_at_epoch": 96582,
        "meta_bstar": 0.0049360153,
        "meta_mean_motion_dot": 0.00016707,
        "meta_mean_motion_ddot": 0,
        "tle_line1": "1 30862U 99025AWY 25337.21069387  .00016707  00000+0  49360-2 0  9994",
        "tle_line2": "2 30862  98.9598  67.4901 0053899 189.9681 200.2162 14.42697915965823"
      },
      "geometry": {
        "type": "Point",
        "coordinates": [
          -103.50944817595094,
          43.51425574208316
        ]
      }
    },
    {
      "type": "Feature",
      "properties": {
        "norad_id": 30863,
        "name": "FENGYUN 1C DEB",
        "group": "fengyun-1c-debris",
        "lat": -47.497173954931014,
        "lon": -19.29241056097732,
        "alt_km": 967.00304118639,
        "timestamp": "2025-12-03T13:52:09.840896+00:00",
        "meta_object_name": "FENGYUN 1C DEB",
        "meta_object_id": "1999-025AWZ",
        "meta_epoch": "2025-12-01T19:58:05.361600",
        "meta_mean_motion": 12.4043832,
        "meta_eccentricity": 0.08789042,
        "meta_inclination": 99.121,
        "meta_ra_of_asc_node": 169.4702,
        "meta_arg_of_pericenter": 273.3504,
        "meta_mean_anomaly": 88.4954,
        "meta_ephemeris_type": 0,
        "meta_classification_type": "U",
        "meta_norad_cat_id": 30863,
        "meta_element_set_no": 999,
        "meta_rev_at_epoch": 59605,
        "meta_bstar": 0.0034163512,
        "meta_mean_motion_dot": 1.767e-05,
        "meta_mean_motion_ddot": 0,
        "tle_line1": "1 30863U 99025AWZ 25335.83200650  .00001767  00000+0  34164-2 0  9997",
        "tle_line2": "2 30863  99.1210 169.4702 0878904 273.3504  88.4954 12.40438320596053"
      },
      "geometry": {
        "type": "Point",
        "coordinates": [
          -19.29241056097732,
          -47.497173954931014
        ]
      }
    },
    {
      "type": "Feature",
      "properties": {
        "norad_id": 30867,
        "name": "FENGYUN 1C DEB",
        "group": "fengyun-1c-debris",
        "lat": 4.469091056939971,
        "lon": 65.925170900709,
        "alt_km": 836.6975798593694,
        "timestamp": "2025-12-03T13:52:09.840906+00:00",
        "meta_object_name": "FENGYUN 1C DEB",
        "meta_object_id": "1999-025AXD",
        "meta_epoch": "2025-12-03T05:21:09.983808",
        "meta_mean_motion": 14.27801601,
        "meta_eccentricity": 0.00547848,
        "meta_inclination": 97.8769,
        "meta_ra_of_asc_node": 244.9851,
        "meta_arg_of_pericenter": 22.51,
        "meta_mean_anomaly": 129.6321,
        "meta_ephemeris_type": 0,
        "meta_classification_type": "U",
        "meta_norad_cat_id": 30867,
        "meta_element_set_no": 999,
        "meta_rev_at_epoch": 96401,
        "meta_bstar": 0.0034671742,
        "meta_mean_motion_dot": 8.678e-05,
        "meta_mean_motion_ddot": 0,
        "tle_line1": "1 30867U 99025AXD 25337.22303222  .00008678  00000+0  34672-2 0  9997",
        "tle_line2": "2 30867  97.8769 244.9851 0054784  22.5100 129.6321 14.27801601964017"
      },
      "geometry": {
        "type": "Point",
        "coordinates": [
          65.925170900709,
          4.469091056939971
        ]
      }
    },
    {
      "type": "Feature",
      "properties": {
        "norad_id": 30868,
        "name": "FENGYUN 1C DEB",
        "group": "fengyun-1c-debris",
        "lat": -22.6319831837892,
        "lon": 32.862415510343595,
        "alt_km": 782.2644251982565,
        "timestamp": "2025-12-03T13:52:09.840917+00:00",
        "meta_object_name": "FENGYUN 1C DEB",
        "meta_object_id": "1999-025AXE",
        "meta_epoch": "2025-12-03T03:25:48.644832",
        "meta_mean_motion": 14.1111144,
        "meta_eccentricity": 0.01348387,
        "meta_inclination": 98.264,
        "meta_ra_of_asc_node": 215.9357,
        "meta_arg_of_pericenter": 240.752,
        "meta_mean_anomaly": 274.5498,
        "meta_ephemeris_type": 0,
        "meta_classification_type": "U",
        "meta_norad_cat_id": 30868,
        "meta_element_set_no": 999,
        "meta_rev_at_epoch": 96575,
        "meta_bstar": 0.00020250959,
        "meta_mean_motion_dot": 3.57e-06,
        "meta_mean_motion_ddot": 0,
        "tle_line1": "1 30868U 99025AXE 25337.14292413  .00000357  00000+0  20251-3 0  9993",
        "tle_line2": "2 30868  98.2640 215.9357 0134838 240.7520 274.5498 14.11111440965754"
      },
      "geometry": {
        "type": "Point",
        "coordinates": [
          32.862415510343595,
          -22.6319831837892
        ]
      }
    }
  ]
}